ATLAS CENTAUR 2         
1 00694U 63047A   25359.09857076  .00002229  00000+0  26161-3 0  9998
2 00694  30.3526 252.4235 0548684 143.0415 220.9308 14.11812303121075
THOR AGENA D R/B        
1 00733U 64002A   25359.00301414  .00000227  00000+0  98126-4 0  9992
2 00733  99.1220   3.2849 0033800 115.1880 245.2814 14.33966659227595
SL-3 R/B                
1 00877U 64053B   25358.89127235  .00000175  00000+0  58362-4 0  9990
2 00877  65.0747 190.5134 0074904 316.3448  43.1741 14.61284394255867
SL-8 R/B                
1 02802U 67045B   25358.83468698  .00000449  00000+0  13187-3 0  9998
2 02802  74.0108 127.8780 0063689 154.2204 206.2153 14.45549115 78202
SL-8 R/B                
1 03230U 68040B   25359.02444175  .00003697  00000+0  27871-3 0  9999
2 03230  74.0312 106.1860 0026014 305.8488  54.0284 15.02608771 78799
OAO 2                   
1 03597U 68110A   25359.20615113  .00000278  00000+0  80154-4 0  9991
2 03597  34.9948 321.0661 0005880 314.8475  45.1738 14.47251525  8300
ISIS 1                  
1 03669U 69009A   25359.00925190  .00000290  00000+0  20882-3 0  9991
2 03669  88.4490 163.4541 1707056 239.9015 102.2075 11.30360257340099
SERT 2                  
1 04327U 70009A   25358.88514117  .00000052  00000+0  12731-3 0  9993
2 04327  99.2670 301.1088 0005021   6.1942  63.0891 13.58719550769735
SL-3 R/B                
1 05118U 71028B   25359.16105414  .00035577  00000+0  52114-3 0  9991
2 05118  81.2384 143.6586 0019117 195.8244 164.2412 15.55178314977067
ASTEX 1                 
1 05560U 71089A   25358.91428417  .00000570  00000+0  14533-3 0  9990
2 05560  92.7148 127.5587 0014788 345.4336  14.6442 14.50656637851468
SL-8 R/B                
1 05730U 71119B   25359.01843029  .00012014  00000+0  62436-3 0  9996
2 05730  73.8896 315.1050 0558415 296.9070  57.6062 14.36024250644764
OAO 3 (COPERNICUS)      
1 06153U 72065A   25359.12315373  .00000417  00000+0  90076-4 0  9991
2 06153  35.0070   2.1243 0007231 269.9454 145.7378 14.59916854835290
