CCSDS_OMM_VERS = 2.0
CREATION_DATE  = 
ORIGINATOR     = 

OBJECT_NAME    = ATLAS CENTAUR 2
OBJECT_ID      = 1963-047A
CENTER_NAME    = EARTH
REF_FRAME      = TEME
TIME_SYSTEM    = UTC
MEAN_ELEMENT_THEORY = SGP/SGP4

EPOCH          = 2025-12-25T02:21:56.513664
MEAN_MOTION    = 14.11812303
ECCENTRICITY   = .0548684
INCLINATION    = 30.3526
RA_OF_ASC_NODE = 252.4235
ARG_OF_PERICENTER = 143.0415
MEAN_ANOMALY   = 220.9308

EPHEMERIS_TYPE = 0
CLASSIFICATION_TYPE = U
NORAD_CAT_ID   = 694
ELEMENT_SET_NO = 999
REV_AT_EPOCH   = 12107
BSTAR          = .26161E-3
MEAN_MOTION_DOT = .2229E-4
MEAN_MOTION_DDOT = 0

CCSDS_OMM_VERS = 2.0
CREATION_DATE  = 
ORIGINATOR     = 

OBJECT_NAME    = THOR AGENA D R/B
OBJECT_ID      = 1964-002A
CENTER_NAME    = EARTH
REF_FRAME      = TEME
TIME_SYSTEM    = UTC
MEAN_ELEMENT_THEORY = SGP/SGP4

EPOCH          = 2025-12-25T00:04:20.421696
MEAN_MOTION    = 14.33966659
ECCENTRICITY   = .00338
INCLINATION    = 99.1220
RA_OF_ASC_NODE = 3.2849
ARG_OF_PERICENTER = 115.1880
MEAN_ANOMALY   = 245.2814

EPHEMERIS_TYPE = 0
CLASSIFICATION_TYPE = U
NORAD_CAT_ID   = 733
ELEMENT_SET_NO = 999
REV_AT_EPOCH   = 22759
BSTAR          = .98126E-4
MEAN_MOTION_DOT = .227E-5
MEAN_MOTION_DDOT = 0

CCSDS_OMM_VERS = 2.0
CREATION_DATE  = 
ORIGINATOR     = 

OBJECT_NAME    = SL-3 R/B
OBJECT_ID      = 1964-053B
CENTER_NAME    = EARTH
REF_FRAME      = TEME
TIME_SYSTEM    = UTC
MEAN_ELEMENT_THEORY = SGP/SGP4

EPOCH          = 2025-12-24T21:23:25.931040
MEAN_MOTION    = 14.61284394
ECCENTRICITY   = .0074904
INCLINATION    = 65.0747
RA_OF_ASC_NODE = 190.5134
ARG_OF_PERICENTER = 316.3448
MEAN_ANOMALY   = 43.1741

EPHEMERIS_TYPE = 0
CLASSIFICATION_TYPE = U
NORAD_CAT_ID   = 877
ELEMENT_SET_NO = 999
REV_AT_EPOCH   = 25586
BSTAR          = .58362E-4
MEAN_MOTION_DOT = .175E-5
MEAN_MOTION_DDOT = 0

CCSDS_OMM_VERS = 2.0
CREATION_DATE  = 
ORIGINATOR     = 

OBJECT_NAME    = SL-8 R/B
OBJECT_ID      = 1967-045B
CENTER_NAME    = EARTH
REF_FRAME      = TEME
TIME_SYSTEM    = UTC
MEAN_ELEMENT_THEORY = SGP/SGP4

EPOCH          = 2025-12-24T20:01:56.955072
MEAN_MOTION    = 14.45549115
ECCENTRICITY   = .0063689
INCLINATION    = 74.0108
RA_OF_ASC_NODE = 127.8780
ARG_OF_PERICENTER = 154.2204
MEAN_ANOMALY   = 206.2153

EPHEMERIS_TYPE = 0
CLASSIFICATION_TYPE = U
NORAD_CAT_ID   = 2802
ELEMENT_SET_NO = 999
REV_AT_EPOCH   = 7820
BSTAR          = .13187453E-3
MEAN_MOTION_DOT = .449E-5
MEAN_MOTION_DDOT = 0

CCSDS_OMM_VERS = 2.0
CREATION_DATE  = 
ORIGINATOR     = 

OBJECT_NAME    = SL-8 R/B
OBJECT_ID      = 1968-040B
CENTER_NAME    = EARTH
REF_FRAME      = TEME
TIME_SYSTEM    = UTC
MEAN_ELEMENT_THEORY = SGP/SGP4

EPOCH          = 2025-12-25T00:35:11.767200
MEAN_MOTION    = 15.02608771
ECCENTRICITY   = .0026014
INCLINATION    = 74.0312
RA_OF_ASC_NODE = 106.1860
ARG_OF_PERICENTER = 305.8488
MEAN_ANOMALY   = 54.0284

EPHEMERIS_TYPE = 0
CLASSIFICATION_TYPE = U
NORAD_CAT_ID   = 3230
ELEMENT_SET_NO = 999
REV_AT_EPOCH   = 7879
BSTAR          = .27871E-3
MEAN_MOTION_DOT = .3697E-4
MEAN_MOTION_DDOT = 0

CCSDS_OMM_VERS = 2.0
CREATION_DATE  = 
ORIGINATOR     = 

OBJECT_NAME    = OAO 2
OBJECT_ID      = 1968-110A
CENTER_NAME    = EARTH
REF_FRAME      = TEME
TIME_SYSTEM    = UTC
MEAN_ELEMENT_THEORY = SGP/SGP4

EPOCH          = 2025-12-25T04:56:51.457632
MEAN_MOTION    = 14.47251525
ECCENTRICITY   = .000588
INCLINATION    = 34.9948
RA_OF_ASC_NODE = 321.0661
ARG_OF_PERICENTER = 314.8475
MEAN_ANOMALY   = 45.1738

EPHEMERIS_TYPE = 0
CLASSIFICATION_TYPE = U
NORAD_CAT_ID   = 3597
ELEMENT_SET_NO = 999
REV_AT_EPOCH   = 830
BSTAR          = .80154E-4
MEAN_MOTION_DOT = .278E-5
MEAN_MOTION_DDOT = 0

CCSDS_OMM_VERS = 2.0
CREATION_DATE  = 
ORIGINATOR     = 

OBJECT_NAME    = ISIS 1
OBJECT_ID      = 1969-009A
CENTER_NAME    = EARTH
REF_FRAME      = TEME
TIME_SYSTEM    = UTC
MEAN_ELEMENT_THEORY = SGP/SGP4

EPOCH          = 2025-12-25T00:13:19.364160
MEAN_MOTION    = 11.30360257
ECCENTRICITY   = .1707056
INCLINATION    = 88.4490
RA_OF_ASC_NODE = 163.4541
ARG_OF_PERICENTER = 239.9015
MEAN_ANOMALY   = 102.2075

EPHEMERIS_TYPE = 0
CLASSIFICATION_TYPE = U
NORAD_CAT_ID   = 3669
ELEMENT_SET_NO = 999
REV_AT_EPOCH   = 34009
BSTAR          = .20882E-3
MEAN_MOTION_DOT = .29E-5
MEAN_MOTION_DDOT = 0

CCSDS_OMM_VERS = 2.0
CREATION_DATE  = 
ORIGINATOR     = 

OBJECT_NAME    = SERT 2
OBJECT_ID      = 1970-009A
CENTER_NAME    = EARTH
REF_FRAME      = TEME
TIME_SYSTEM    = UTC
MEAN_ELEMENT_THEORY = SGP/SGP4

EPOCH          = 2025-12-24T21:14:36.197088
MEAN_MOTION    = 13.58719550
ECCENTRICITY   = .0005021
INCLINATION    = 99.2670
RA_OF_ASC_NODE = 301.1088
ARG_OF_PERICENTER = 6.1942
MEAN_ANOMALY   = 63.0891

EPHEMERIS_TYPE = 0
CLASSIFICATION_TYPE = U
NORAD_CAT_ID   = 4327
ELEMENT_SET_NO = 999
REV_AT_EPOCH   = 76973
BSTAR          = .12731E-3
MEAN_MOTION_DOT = .52E-6
MEAN_MOTION_DDOT = 0

CCSDS_OMM_VERS = 2.0
CREATION_DATE  = 
ORIGINATOR     = 

OBJECT_NAME    = SL-3 R/B
OBJECT_ID      = 1971-028B
CENTER_NAME    = EARTH
REF_FRAME      = TEME
TIME_SYSTEM    = UTC
MEAN_ELEMENT_THEORY = SGP/SGP4

EPOCH          = 2025-12-25T03:51:55.077696
MEAN_MOTION    = 15.55178314
ECCENTRICITY   = .0019117
INCLINATION    = 81.2384
RA_OF_ASC_NODE = 143.6586
ARG_OF_PERICENTER = 195.8244
MEAN_ANOMALY   = 164.2412

EPHEMERIS_TYPE = 0
CLASSIFICATION_TYPE = U
NORAD_CAT_ID   = 5118
ELEMENT_SET_NO = 999
REV_AT_EPOCH   = 97706
BSTAR          = .52114E-3
MEAN_MOTION_DOT = .35577E-3
MEAN_MOTION_DDOT = 0

CCSDS_OMM_VERS = 2.0
CREATION_DATE  = 
ORIGINATOR     = 

OBJECT_NAME    = ASTEX 1
OBJECT_ID      = 1971-089A
CENTER_NAME    = EARTH
REF_FRAME      = TEME
TIME_SYSTEM    = UTC
MEAN_ELEMENT_THEORY = SGP/SGP4

EPOCH          = 2025-12-24T21:56:34.152288
MEAN_MOTION    = 14.50656637
ECCENTRICITY   = .0014788
INCLINATION    = 92.7148
RA_OF_ASC_NODE = 127.5587
ARG_OF_PERICENTER = 345.4336
MEAN_ANOMALY   = 14.6442

EPHEMERIS_TYPE = 0
CLASSIFICATION_TYPE = U
NORAD_CAT_ID   = 5560
ELEMENT_SET_NO = 999
REV_AT_EPOCH   = 85146
BSTAR          = .14533E-3
MEAN_MOTION_DOT = .57E-5
MEAN_MOTION_DDOT = 0

CCSDS_OMM_VERS = 2.0
CREATION_DATE  = 
ORIGINATOR     = 

OBJECT_NAME    = SL-8 R/B
OBJECT_ID      = 1971-119B
CENTER_NAME    = EARTH
REF_FRAME      = TEME
TIME_SYSTEM    = UTC
MEAN_ELEMENT_THEORY = SGP/SGP4

EPOCH          = 2025-12-25T00:26:32.377056
MEAN_MOTION    = 14.36024250
ECCENTRICITY   = .0558415
INCLINATION    = 73.8896
RA_OF_ASC_NODE = 315.1050
ARG_OF_PERICENTER = 296.9070
MEAN_ANOMALY   = 57.6062

EPHEMERIS_TYPE = 0
CLASSIFICATION_TYPE = U
NORAD_CAT_ID   = 5730
ELEMENT_SET_NO = 999
REV_AT_EPOCH   = 64476
BSTAR          = .62436E-3
MEAN_MOTION_DOT = .12014E-3
MEAN_MOTION_DDOT = 0

CCSDS_OMM_VERS = 2.0
CREATION_DATE  = 
ORIGINATOR     = 

OBJECT_NAME    = OAO 3 (COPERNICUS)
OBJECT_ID      = 1972-065A
CENTER_NAME    = EARTH
REF_FRAME      = TEME
TIME_SYSTEM    = UTC
MEAN_ELEMENT_THEORY = SGP/SGP4

EPOCH          = 2025-12-25T02:57:20.482272
MEAN_MOTION    = 14.59916854
ECCENTRICITY   = .0007231
INCLINATION    = 35.0070
RA_OF_ASC_NODE = 2.1243
ARG_OF_PERICENTER = 269.9454
MEAN_ANOMALY   = 145.7378

EPHEMERIS_TYPE = 0
CLASSIFICATION_TYPE = U
NORAD_CAT_ID   = 6153
ELEMENT_SET_NO = 999
REV_AT_EPOCH   = 83529
BSTAR          = .90076E-4
MEAN_MOTION_DOT = .417E-5
MEAN_MOTION_DDOT = 0

